CCSDS_OMM_VERS = 2.0
CREATION_DATE  = 
ORIGINATOR     = 

OBJECT_NAME    = STARLINK-36768
OBJECT_ID      = 2026-032G
CENTER_NAME    = EARTH
REF_FRAME      = TEME
TIME_SYSTEM    = UTC
MEAN_ELEMENT_THEORY = SGP/SGP4

EPOCH          = 2026-02-27T04:00:01.999584
MEAN_MOTION    = 15.80838899
ECCENTRICITY   = .0001607
INCLINATION    = 97.2851
RA_OF_ASC_NODE = 244.1346
ARG_OF_PERICENTER = 92.3215
MEAN_ANOMALY   = 26.1270

EPHEMERIS_TYPE = 0
CLASSIFICATION_TYPE = U
NORAD_CAT_ID   = 67803
ELEMENT_SET_NO = 999
REV_AT_EPOCH   = 308
BSTAR          = -.2467E-3
MEAN_MOTION_DOT = -.47193E-3
MEAN_MOTION_DDOT = 0

CCSDS_OMM_VERS = 2.0
CREATION_DATE  = 
ORIGINATOR     = 

OBJECT_NAME    = STARLINK-36792
OBJECT_ID      = 2026-032H
CENTER_NAME    = EARTH
REF_FRAME      = TEME
TIME_SYSTEM    = UTC
MEAN_ELEMENT_THEORY = SGP/SGP4

EPOCH          = 2026-02-27T04:00:01.999584
MEAN_MOTION    = 15.80862973
ECCENTRICITY   = .0001567
INCLINATION    = 97.2847
RA_OF_ASC_NODE = 244.1378
ARG_OF_PERICENTER = 92.8230
MEAN_ANOMALY   = 35.8464

EPHEMERIS_TYPE = 0
CLASSIFICATION_TYPE = U
NORAD_CAT_ID   = 67804
ELEMENT_SET_NO = 999
REV_AT_EPOCH   = 302
BSTAR          = -.57527E-3
MEAN_MOTION_DOT = -.109205E-2
MEAN_MOTION_DDOT = 0

CCSDS_OMM_VERS = 2.0
CREATION_DATE  = 
ORIGINATOR     = 

OBJECT_NAME    = STARLINK-36782
OBJECT_ID      = 2026-032J
CENTER_NAME    = EARTH
REF_FRAME      = TEME
TIME_SYSTEM    = UTC
MEAN_ELEMENT_THEORY = SGP/SGP4

EPOCH          = 2026-02-27T04:00:01.999584
MEAN_MOTION    = 15.80874829
ECCENTRICITY   = .0001771
INCLINATION    = 97.2852
RA_OF_ASC_NODE = 244.1412
ARG_OF_PERICENTER = 105.9006
MEAN_ANOMALY   = 27.4312

EPHEMERIS_TYPE = 0
CLASSIFICATION_TYPE = U
NORAD_CAT_ID   = 67805
ELEMENT_SET_NO = 999
REV_AT_EPOCH   = 308
BSTAR          = .4265E-4
MEAN_MOTION_DOT = .8057E-4
MEAN_MOTION_DDOT = 0

CCSDS_OMM_VERS = 2.0
CREATION_DATE  = 
ORIGINATOR     = 

OBJECT_NAME    = STARLINK-36389
OBJECT_ID      = 2026-032K
CENTER_NAME    = EARTH
REF_FRAME      = TEME
TIME_SYSTEM    = UTC
MEAN_ELEMENT_THEORY = SGP/SGP4

EPOCH          = 2026-02-27T04:00:01.999584
MEAN_MOTION    = 15.80837353
ECCENTRICITY   = .0001291
INCLINATION    = 97.2850
RA_OF_ASC_NODE = 244.1438
ARG_OF_PERICENTER = 93.4995
MEAN_ANOMALY   = 46.5528

EPHEMERIS_TYPE = 0
CLASSIFICATION_TYPE = U
NORAD_CAT_ID   = 67806
ELEMENT_SET_NO = 999
REV_AT_EPOCH   = 308
BSTAR          = .77986E-5
MEAN_MOTION_DOT = .1354E-4
MEAN_MOTION_DDOT = 0

CCSDS_OMM_VERS = 2.0
CREATION_DATE  = 
ORIGINATOR     = 

OBJECT_NAME    = STARLINK-36382
OBJECT_ID      = 2026-032L
CENTER_NAME    = EARTH
REF_FRAME      = TEME
TIME_SYSTEM    = UTC
MEAN_ELEMENT_THEORY = SGP/SGP4

EPOCH          = 2026-02-27T04:00:01.999584
MEAN_MOTION    = 15.80843561
ECCENTRICITY   = .0002123
INCLINATION    = 97.2848
RA_OF_ASC_NODE = 244.1453
ARG_OF_PERICENTER = 92.1023
MEAN_ANOMALY   = 53.4310

EPHEMERIS_TYPE = 0
CLASSIFICATION_TYPE = U
NORAD_CAT_ID   = 67807
ELEMENT_SET_NO = 999
REV_AT_EPOCH   = 302
BSTAR          = -.2179E-3
MEAN_MOTION_DOT = -.41738E-3
MEAN_MOTION_DDOT = 0

CCSDS_OMM_VERS = 2.0
CREATION_DATE  = 
ORIGINATOR     = 

OBJECT_NAME    = STARLINK-36811
OBJECT_ID      = 2026-032M
CENTER_NAME    = EARTH
REF_FRAME      = TEME
TIME_SYSTEM    = UTC
MEAN_ELEMENT_THEORY = SGP/SGP4

EPOCH          = 2026-02-27T04:00:01.999584
MEAN_MOTION    = 15.80834068
ECCENTRICITY   = .0001806
INCLINATION    = 97.2850
RA_OF_ASC_NODE = 244.1492
ARG_OF_PERICENTER = 93.3657
MEAN_ANOMALY   = 58.8615

EPHEMERIS_TYPE = 0
CLASSIFICATION_TYPE = U
NORAD_CAT_ID   = 67808
ELEMENT_SET_NO = 999
REV_AT_EPOCH   = 308
BSTAR          = -.41536E-4
MEAN_MOTION_DOT = -.8098E-4
MEAN_MOTION_DDOT = 0

CCSDS_OMM_VERS = 2.0
CREATION_DATE  = 
ORIGINATOR     = 

OBJECT_NAME    = STARLINK-36795
OBJECT_ID      = 2026-032N
CENTER_NAME    = EARTH
REF_FRAME      = TEME
TIME_SYSTEM    = UTC
MEAN_ELEMENT_THEORY = SGP/SGP4

EPOCH          = 2026-02-27T04:00:01.999584
MEAN_MOTION    = 15.80838064
ECCENTRICITY   = .0001173
INCLINATION    = 97.2849
RA_OF_ASC_NODE = 244.1513
ARG_OF_PERICENTER = 95.0278
MEAN_ANOMALY   = 63.6168

EPHEMERIS_TYPE = 0
CLASSIFICATION_TYPE = U
NORAD_CAT_ID   = 67809
ELEMENT_SET_NO = 999
REV_AT_EPOCH   = 308
BSTAR          = -.13714E-3
MEAN_MOTION_DOT = -.26358E-3
MEAN_MOTION_DDOT = 0

CCSDS_OMM_VERS = 2.0
CREATION_DATE  = 
ORIGINATOR     = 

OBJECT_NAME    = STARLINK-36807
OBJECT_ID      = 2026-032P
CENTER_NAME    = EARTH
REF_FRAME      = TEME
TIME_SYSTEM    = UTC
MEAN_ELEMENT_THEORY = SGP/SGP4

EPOCH          = 2026-02-27T04:00:01.999584
MEAN_MOTION    = 15.80803887
ECCENTRICITY   = .0001844
INCLINATION    = 97.2848
RA_OF_ASC_NODE = 244.1535
ARG_OF_PERICENTER = 87.6238
MEAN_ANOMALY   = 76.3301

EPHEMERIS_TYPE = 0
CLASSIFICATION_TYPE = U
NORAD_CAT_ID   = 67810
ELEMENT_SET_NO = 999
REV_AT_EPOCH   = 308
BSTAR          = .29682E-3
MEAN_MOTION_DOT = .57056E-3
MEAN_MOTION_DDOT = 0

CCSDS_OMM_VERS = 2.0
CREATION_DATE  = 
ORIGINATOR     = 

OBJECT_NAME    = STARLINK-36733
OBJECT_ID      = 2026-032Q
CENTER_NAME    = EARTH
REF_FRAME      = TEME
TIME_SYSTEM    = UTC
MEAN_ELEMENT_THEORY = SGP/SGP4

EPOCH          = 2026-02-27T04:00:01.999584
MEAN_MOTION    = 15.80846676
ECCENTRICITY   = .000162
INCLINATION    = 97.2845
RA_OF_ASC_NODE = 244.1559
ARG_OF_PERICENTER = 94.3345
MEAN_ANOMALY   = 76.6804

EPHEMERIS_TYPE = 0
CLASSIFICATION_TYPE = U
NORAD_CAT_ID   = 67811
ELEMENT_SET_NO = 999
REV_AT_EPOCH   = 308
BSTAR          = -.27551E-3
MEAN_MOTION_DOT = -.52673E-3
MEAN_MOTION_DDOT = 0

CCSDS_OMM_VERS = 2.0
CREATION_DATE  = 
ORIGINATOR     = 

OBJECT_NAME    = STARLINK-36377
OBJECT_ID      = 2026-032R
CENTER_NAME    = EARTH
REF_FRAME      = TEME
TIME_SYSTEM    = UTC
MEAN_ELEMENT_THEORY = SGP/SGP4

EPOCH          = 2026-02-27T04:00:01.999584
MEAN_MOTION    = 15.81232917
ECCENTRICITY   = .0001498
INCLINATION    = 97.2843
RA_OF_ASC_NODE = 244.1639
ARG_OF_PERICENTER = 64.9439
MEAN_ANOMALY   = 123.9023

EPHEMERIS_TYPE = 0
CLASSIFICATION_TYPE = U
NORAD_CAT_ID   = 67812
ELEMENT_SET_NO = 999
REV_AT_EPOCH   = 308
BSTAR          = -.34419E-2
MEAN_MOTION_DOT = -.626195E-2
MEAN_MOTION_DDOT = 0

CCSDS_OMM_VERS = 2.0
CREATION_DATE  = 
ORIGINATOR     = 

OBJECT_NAME    = STARLINK-36732
OBJECT_ID      = 2026-032S
CENTER_NAME    = EARTH
REF_FRAME      = TEME
TIME_SYSTEM    = UTC
MEAN_ELEMENT_THEORY = SGP/SGP4

EPOCH          = 2026-02-27T04:00:01.999584
MEAN_MOTION    = 15.81039301
ECCENTRICITY   = .0001577
INCLINATION    = 97.2841
RA_OF_ASC_NODE = 244.1605
ARG_OF_PERICENTER = 79.1963
MEAN_ANOMALY   = 104.2354

EPHEMERIS_TYPE = 0
CLASSIFICATION_TYPE = U
NORAD_CAT_ID   = 67813
ELEMENT_SET_NO = 999
REV_AT_EPOCH   = 308
BSTAR          = -.16243E-2
MEAN_MOTION_DOT = -.303817E-2
MEAN_MOTION_DDOT = 0

CCSDS_OMM_VERS = 2.0
CREATION_DATE  = 
ORIGINATOR     = 

OBJECT_NAME    = STARLINK-36767
OBJECT_ID      = 2026-032T
CENTER_NAME    = EARTH
REF_FRAME      = TEME
TIME_SYSTEM    = UTC
MEAN_ELEMENT_THEORY = SGP/SGP4

EPOCH          = 2026-02-27T04:00:01.999584
MEAN_MOTION    = 15.80928270
ECCENTRICITY   = .0001247
INCLINATION    = 97.2841
RA_OF_ASC_NODE = 244.1585
ARG_OF_PERICENTER = 83.9983
MEAN_ANOMALY   = 94.1508

EPHEMERIS_TYPE = 0
CLASSIFICATION_TYPE = U
NORAD_CAT_ID   = 67814
ELEMENT_SET_NO = 999
REV_AT_EPOCH   = 308
BSTAR          = -.88188E-3
MEAN_MOTION_DOT = -.166733E-2
MEAN_MOTION_DDOT = 0

