STARLINK-36768          
1 67803U 26032G   26058.16668981 -.00047193  00000+0 -24670-3 0  9990
2 67803  97.2851 244.1346 0001607  92.3215  26.1270 15.80838899  3086
STARLINK-36792          
1 67804U 26032H   26058.16668981 -.00109205  00000+0 -57527-3 0  9991
2 67804  97.2847 244.1378 0001567  92.8230  35.8464 15.80862973  3020
STARLINK-36782          
1 67805U 26032J   26058.16668981  .00008057  00000+0  42650-4 0  9995
2 67805  97.2852 244.1412 0001771 105.9006  27.4312 15.80874829  3088
STARLINK-36389          
1 67806U 26032K   26058.16668981  .00001354  00000+0  77986-5 0  9990
2 67806  97.2850 244.1438 0001291  93.4995  46.5528 15.80837353  3082
STARLINK-36382          
1 67807U 26032L   26058.16668981 -.00041738  00000+0 -21790-3 0  9993
2 67807  97.2848 244.1453 0002123  92.1023  53.4310 15.80843561  3028
STARLINK-36811          
1 67808U 26032M   26058.16668981 -.00008098  00000+0 -41536-4 0  9997
2 67808  97.2850 244.1492 0001806  93.3657  58.8615 15.80834068  3083
STARLINK-36795          
1 67809U 26032N   26058.16668981 -.00026358  00000+0 -13714-3 0  9993
2 67809  97.2849 244.1513 0001173  95.0278  63.6168 15.80838064  3088
STARLINK-36807          
1 67810U 26032P   26058.16668981  .00057056  00000+0  29682-3 0  9993
2 67810  97.2848 244.1535 0001844  87.6238  76.3301 15.80803887  3086
STARLINK-36733          
1 67811U 26032Q   26058.16668981 -.00052673  00000+0 -27551-3 0  9999
2 67811  97.2845 244.1559 0001620  94.3345  76.6804 15.80846676  3080
STARLINK-36377          
1 67812U 26032R   26058.16668981 -.00626195  00000+0 -34419-2 0  9996
2 67812  97.2843 244.1639 0001498  64.9439 123.9023 15.81232917  3085
STARLINK-36732          
1 67813U 26032S   26058.16668981 -.00303817  00000+0 -16243-2 0  9995
2 67813  97.2841 244.1605 0001577  79.1963 104.2354 15.81039301  3086
STARLINK-36767          
1 67814U 26032T   26058.16668981 -.00166733  00000+0 -88188-3 0  9998
2 67814  97.2841 244.1585 0001247  83.9983  94.1508 15.80928270  3082
